OBJECT_NAME,OBJECT_ID,EPOCH,MEAN_MOTION,ECCENTRICITY,INCLINATION,RA_OF_ASC_NODE,ARG_OF_PERICENTER,MEAN_ANOMALY,EPHEMERIS_TYPE,CLASSIFICATION_TYPE,NORAD_CAT_ID,ELEMENT_SET_NO,REV_AT_EPOCH,BSTAR,MEAN_MOTION_DOT,MEAN_MOTION_DDOT
STARLINK-37938,2026-135Y,2026-07-11T04:00:01.998720,15.54824194,.0001408,97.2847,220.5395,65.3187,25.6465,0,U,69568,999,516,-.41921E-1,-.2433262E-1,0
STARLINK-37924,2026-135Z,2026-07-11T04:00:01.998720,15.64712584,.0001772,97.2839,220.6024,87.7641,154.0093,0,U,69569,999,516,-.30443E-1,-.2562709E-1,0
SHIJIAN-31 (SJ-31),2026-136A,2026-07-10T09:13:39.427104,1.92225274,.6940281,63.4854,353.6902,171.8249,212.3005,0,U,69570,999,53,0,-.99E-6,0
CZ-3B R/B,2026-136B,2026-07-10T06:18:14.404608,2.36167064,.7271559,63.4296,351.4733,171.4867,216.5354,0,U,69571,999,56,.46219E-3,.320601E-2,-.99206E-6
GUOWANG OBJECT A,2026-137A,2026-07-09T08:51:32.527872,13.89812603,.00125573,49.9993,167.0911,299.3374,60.6270,0,U,69572,999,310,.29402617E-4,-.11E-5,0
GUOWANG OBJECT B,2026-137B,2026-07-09T15:41:33.480672,13.89803849,.001186,50.0016,165.9303,298.8434,61.1273,0,U,69573,999,315,-.55136E-4,-.214E-5,0
GUOWANG OBJECT C,2026-137C,2026-07-09T15:39:58.501152,13.89815350,.00119046,49.9962,165.9102,300.6112,59.3612,0,U,69574,999,315,.72323156E-4,-.57E-6,0
GUOWANG OBJECT D,2026-137D,2026-07-09T15:38:20.572800,13.89827781,.00110869,49.9953,165.9027,299.2996,60.6794,0,U,69575,999,315,-.17667174E-4,-.168E-5,0
GUOWANG OBJECT E,2026-137E,2026-07-09T15:36:55.900800,13.89825186,.00112638,50.0036,165.9215,302.1342,57.8463,0,U,69576,999,315,-.55274093E-4,-.214E-5,0
GUOWANG OBJECT F,2026-137F,2026-07-09T15:35:44.385792,13.89809494,.00108496,50.0025,165.9144,302.1836,57.8010,0,U,69577,999,315,-.5598398E-4,-.215E-5,0
GUOWANG OBJECT G,2026-137G,2026-07-09T19:01:34.515840,13.89795125,.00108105,49.9977,165.3173,302.3991,57.5861,0,U,69578,999,317,.1858455E-5,-.144E-5,0
GUOWANG OBJECT H,2026-137H,2026-07-10T00:11:03.674688,13.89776278,.0010249,50.0012,164.4679,306.3680,53.6272,0,U,69579,999,320,-.23862E-4,-.175E-5,0
GUOWANG OBJECT J,2026-137J,2026-06-27T06:41:01.268160,13.91997107,.0011832,49.9961,215.0979,257.3150,102.6427,0,U,69580,999,143,.13174E-3,.22E-6,0
CZ-12 R/B,2026-137K,2026-07-11T00:21:08.708832,14.11693949,.0077462,49.9885,157.0608,195.4071,164.4476,0,U,69581,999,337,.81393E-4,-.1E-7,0
CENTISPACE-1 GROUP 05 OBJECT A,2026-138A,2026-07-10T10:41:45.066336,14.15470715,.00110574,55.1385,195.2888,333.8191,26.2223,0,U,69582,999,331,-.515028E-6,-.154E-5,0
CENTISPACE-1 GROUP 05 OBJECT B,2026-138B,2026-07-10T07:14:05.108928,14.15650892,.00100155,55.1381,195.7932,333.8060,26.2406,0,U,69583,999,329,-.49330131E-4,-.251E-5,0
CENTISPACE-1 GROUP 05 OBJECT C,2026-138C,2026-07-11T00:08:49.051392,14.15734567,.001002,55.1387,193.1867,337.0783,22.9743,0,U,69584,999,339,-.56815E-4,-.266E-5,0
CENTISPACE-1 GROUP 05 OBJECT D,2026-138D,2026-07-10T10:31:18.160896,14.15920758,.00095429,55.1385,195.2493,334.9114,25.1396,0,U,69585,999,331,-.10663654E-3,-.365E-5,0
CENTISPACE-1 GROUP 05 OBJECT E,2026-138E,2026-07-10T17:16:21.336960,14.15987602,.0009289,55.1377,194.2072,336.0177,24.0363,0,U,69586,999,335,-.10357E-3,-.359E-5,0
CENTISPACE-1 GROUP 05 OBJECT F,2026-138F,2026-07-09T10:48:03.070656,14.15911299,.00090797,55.1382,198.9095,337.2600,22.7971,0,U,69587,999,317,-.10716413E-3,-.366E-5,0
CENTISPACE-1 GROUP 05 OBJECT G,2026-138G,2026-07-11T00:00:34.174656,14.16074631,.0008481,55.1382,193.1537,340.6309,19.4342,0,U,69588,999,339,-.12475E-3,-.401E-5,0
SPACEMOBILE-008,2026-139A,2026-07-10T22:11:28.792320,15.12798577,.0004851,52.9942,154.7960,46.4367,313.7027,0,U,69589,999,357,.24411E-4,.132E-5,0
SPACEMOBILE-009,2026-139B,2026-07-10T22:13:52.273344,15.12691782,.000509,52.9932,154.8015,41.8205,318.3174,0,U,69590,999,357,.21885E-4,.86E-6,0
SPACEMOBILE-010,2026-139C,2026-07-10T22:17:40.116192,15.12522765,.0004992,52.9937,154.8204,33.2635,326.8669,0,U,69591,999,358,.19202E-4,.38E-6,0
KUIPER-00423,2026-140A,2026-07-10T21:29:39.295680,15.38546875,.0013217,51.8792,283.8762,255.4125,104.5397,0,U,69592,999,488,.28822E-3,.10785E-3,0
KUIPER-00428,2026-140B,2026-07-10T14:30:23.545152,15.36889910,.0007867,51.8819,285.6699,17.4247,342.7009,0,U,69593,999,483,.49861E-3,.17931E-3,0
KUIPER-00481,2026-140C,2026-07-11T05:31:15.392064,15.37951257,.0011486,51.8766,282.3603,266.8235,93.1438,0,U,69594,999,493,.63966E-3,.23979E-3,0
KUIPER-00490,2026-140D,2026-07-09T14:45:44.313408,15.37866213,.0006475,51.8784,290.2809,318.9066,41.1433,0,U,69595,999,468,.33518E-3,.12304E-3,0
KUIPER-00493,2026-140E,2026-07-10T19:17:46.565088,15.36606216,.0007634,51.8784,284.7521,23.7231,336.4106,0,U,69596,999,486,.45216E-3,.16069E-3,0
KUIPER-00496,2026-140F,2026-07-10T08:46:31.343520,15.34427947,.00103838,51.8780,287.0540,37.4339,322.7368,0,U,69597,999,479,.33771893E-3,.11083E-3,0
