STARLINK-37938          
1 69568U 26135Y   26192.16668980 -.02433262  00000+0 -41921-1 0  9996
2 69568  97.2847 220.5395 0001408  65.3187  25.6465 15.54824194  5165
STARLINK-37924          
1 69569U 26135Z   26192.16668980 -.02562709  00000+0 -30443-1 0  9993
2 69569  97.2839 220.6024 0001772  87.7641 154.0093 15.64712584  5168
SHIJIAN-31 (SJ-31)      
1 69570U 26136A   26191.38448411 -.00000099  00000+0  00000+0 0  9994
2 69570  63.4854 353.6902 6940281 171.8249 212.3005  1.92225274   534
CZ-3B R/B               
1 69571U 26136B   26191.26266672  .00320601 -99206-6  46219-3 0  9992
2 69571  63.4296 351.4733 7271559 171.4867 216.5354  2.36167064   568
GUOWANG OBJECT A        
1 69572U 26137A   26190.36912648 -.00000110  00000+0  29403-4 0  9999
2 69572  49.9993 167.0911 0012557 299.3374  60.6270 13.89812603  3102
GUOWANG OBJECT B        
1 69573U 26137B   26190.65385973 -.00000214  00000+0 -55136-4 0  9995
2 69573  50.0016 165.9303 0011860 298.8434  61.1273 13.89803849  3157
GUOWANG OBJECT C        
1 69574U 26137C   26190.65276043 -.00000057  00000+0  72323-4 0  9994
2 69574  49.9962 165.9102 0011904 300.6112  59.3612 13.89815350  3152
GUOWANG OBJECT D        
1 69575U 26137D   26190.65162700 -.00000168  00000+0 -17667-4 0  9993
2 69575  49.9953 165.9027 0011086 299.2996  60.6794 13.89827781  3150
GUOWANG OBJECT E        
1 69576U 26137E   26190.65064700 -.00000214  00000+0 -55274-4 0  9993
2 69576  50.0036 165.9215 0011263 302.1342  57.8463 13.89825186  3159
GUOWANG OBJECT F        
1 69577U 26137F   26190.64981928 -.00000215  00000+0 -55984-4 0  9992
2 69577  50.0025 165.9144 0010849 302.1836  57.8010 13.89809494  3158
GUOWANG OBJECT G        
1 69578U 26137G   26190.79276060 -.00000144  00000+0  18585-5 0  9990
2 69578  49.9977 165.3173 0010810 302.3991  57.5861 13.89795125  3178
GUOWANG OBJECT H        
1 69579U 26137H   26191.00768142 -.00000175  00000+0 -23862-4 0  9991
2 69579  50.0012 164.4679 0010249 306.3680  53.6272 13.89776278  3203
GUOWANG OBJECT J        
1 69580U 26137J   26178.27848690  .00000022  00000+0  13174-3 0  9997
2 69580  49.9961 215.0979 0011832 257.3150 102.6427 13.91997107  1436
CZ-12 R/B               
1 69581U 26137K   26192.01468413 -.00000001  00000+0  81393-4 0  9994
2 69581  49.9885 157.0608 0077462 195.4071 164.4476 14.11693949  3376
CENTISPACE-1 GROUP 05 O*
1 69582U 26138A   26191.44566049 -.00000154  00000+0 -51503-6 0  9998
2 69582  55.1385 195.2888 0011057 333.8191  26.2223 14.15470715  3311
CENTISPACE-1 GROUP 05 O*
1 69583U 26138B   26191.30144802 -.00000251  00000+0 -49330-4 0  9994
2 69583  55.1381 195.7932 0010015 333.8060  26.2406 14.15650892  3297
CENTISPACE-1 GROUP 05 O*
1 69584U 26138C   26192.00612328 -.00000266  00000+0 -56815-4 0  9998
2 69584  55.1387 193.1867 0010020 337.0783  22.9743 14.15734567  3397
CENTISPACE-1 GROUP 05 O*
1 69585U 26138D   26191.43840464 -.00000365  00000+0 -10664-3 0  9990
2 69585  55.1385 195.2493 0009542 334.9114  25.1396 14.15920758  3315
CENTISPACE-1 GROUP 05 O*
1 69586U 26138E   26191.71969140 -.00000359  00000+0 -10357-3 0  9997
2 69586  55.1377 194.2072 0009289 336.0177  24.0363 14.15987602  3356
CENTISPACE-1 GROUP 05 O*
1 69587U 26138F   26190.45003554 -.00000366  00000+0 -10716-3 0  9993
2 69587  55.1382 198.9095 0009079 337.2600  22.7971 14.15911299  3179
CENTISPACE-1 GROUP 05 O*
1 69588U 26138G   26192.00039554 -.00000401  00000+0 -12475-3 0  9990
2 69588  55.1382 193.1537 0008481 340.6309  19.4342 14.16074631  3398
SPACEMOBILE-008         
1 69589U 26139A   26191.92463880  .00000132  00000+0  24411-4 0  9998
2 69589  52.9942 154.7960 0004851  46.4367 313.7027 15.12798577  3570
SPACEMOBILE-009         
1 69590U 26139B   26191.92629946  .00000086  00000+0  21885-4 0  9997
2 69590  52.9932 154.8015 0005090  41.8205 318.3174 15.12691782  3573
SPACEMOBILE-010         
1 69591U 26139C   26191.92893653  .00000038  00000+0  19202-4 0  9993
2 69591  52.9937 154.8204 0004992  33.2635 326.8669 15.12522765  3589
KUIPER-00423            
1 69592U 26140A   26191.89559370  .00010785  00000+0  28822-3 0  9994
2 69592  51.8792 283.8762 0013217 255.4125 104.5397 15.38546875  4880
KUIPER-00428            
1 69593U 26140B   26191.60443918  .00017931  00000+0  49861-3 0  9990
2 69593  51.8819 285.6699 0007867  17.4247 342.7009 15.36889910  4834
KUIPER-00481            
1 69594U 26140C   26192.23003926  .00023979  00000+0  63966-3 0  9993
2 69594  51.8766 282.3603 0011486 266.8235  93.1438 15.37951257  4933
KUIPER-00490            
1 69595U 26140D   26190.61509622  .00012304  00000+0  33518-3 0  9998
2 69595  51.8784 290.2809 0006475 318.9066  41.1433 15.37866213  4680
KUIPER-00493            
1 69596U 26140E   26191.80401117  .00016069  00000+0  45216-3 0  9991
2 69596  51.8784 284.7521 0007634  23.7231 336.4106 15.36606216  4864
KUIPER-00496            
1 69597U 26140F   26191.36564055  .00011083  00000+0  33772-3 0  9999
2 69597  51.8780 287.0540 0010383  37.4339 322.7368 15.34427947  4794
